[{"OBJECT_NAME":"SNAP-3 JIMI","OBJECT_ID":"2015-058M","EPOCH":"2026-03-09T15:09:34.376832","MEAN_MOTION":15.01135599,"ECCENTRICITY":0.0105534,"INCLINATION":64.7662,"RA_OF_ASC_NODE":174.484,"ARG_OF_PERICENTER":96.511,"MEAN_ANOMALY":264.8035,"EPHEMERIS_TYPE":0,"CLASSIFICATION_TYPE":"U","NORAD_CAT_ID":40975,"ELEMENT_SET_NO":999,"REV_AT_EPOCH":9927,"BSTAR":0.00051665,"MEAN_MOTION_DOT":7.303e-5,"MEAN_MOTION_DDOT":0},{"OBJECT_NAME":"STARLINK-5735","OBJECT_ID":"2023-020AL","EPOCH":"2026-03-09T22:00:01.999584","MEAN_MOTION":15.06279233,"ECCENTRICITY":5.97e-5,"INCLINATION":43.0003,"RA_OF_ASC_NODE":350.7132,"ARG_OF_PERICENTER":265.6856,"MEAN_ANOMALY":330.5887,"EPHEMERIS_TYPE":0,"CLASSIFICATION_TYPE":"U","NORAD_CAT_ID":55603,"ELEMENT_SET_NO":999,"REV_AT_EPOCH":572,"BSTAR":0.0010089765,"MEAN_MOTION_DOT":0.00014888,"MEAN_MOTION_DDOT":0}]
